[{"OBJECT_NAME":"ICEYE-X11","OBJECT_ID":"2021-059AR","EPOCH":"2026-03-09T23:58:26.261184","MEAN_MOTION":15.74026715,"ECCENTRICITY":0.00046944,"INCLINATION":97.6457,"RA_OF_ASC_NODE":256.9655,"ARG_OF_PERICENTER":333.4383,"MEAN_ANOMALY":26.664,"EPHEMERIS_TYPE":0,"CLASSIFICATION_TYPE":"U","NORAD_CAT_ID":48918,"ELEMENT_SET_NO":999,"REV_AT_EPOCH":26228,"BSTAR":0.00071987659,"MEAN_MOTION_DOT":0.00103309,"MEAN_MOTION_DDOT":0},{"OBJECT_NAME":"STARLINK-36565","OBJECT_ID":"2026-014N","EPOCH":"2026-03-09T14:57:22.180896","MEAN_MOTION":15.75264916,"ECCENTRICITY":0.000127,"INCLINATION":97.2846,"RA_OF_ASC_NODE":313.5639,"ARG_OF_PERICENTER":105.7215,"MEAN_ANOMALY":254.419,"EPHEMERIS_TYPE":0,"CLASSIFICATION_TYPE":"U","NORAD_CAT_ID":67544,"ELEMENT_SET_NO":999,"REV_AT_EPOCH":856,"BSTAR":0.0015195,"MEAN_MOTION_DOT":0.00233575,"MEAN_MOTION_DDOT":0}]
